{
  "type": "FeatureCollection",
  "features": [
    {
      "type": "Feature",
      "properties": {
        "norad_id": 37836,
        "name": "EUTELSAT 16A",
        "group": "eutelsat",
        "lat": -0.014955706211932386,
        "lon": -16.161593180292865,
        "alt_km": 35776.3491691317,
        "timestamp": "2025-12-26T15:29:39.109527+00:00",
        "meta_object_name": "EUTELSAT 16A",
        "meta_object_id": "2011-057A",
        "meta_epoch": "2025-12-26T04:32:52.336032",
        "meta_mean_motion": 1.00271589,
        "meta_eccentricity": 0.00058302,
        "meta_inclination": 0.0557,
        "meta_ra_of_asc_node": 351.9363,
        "meta_arg_of_pericenter": 285.1285,
        "meta_mean_anomaly": 262.075,
        "meta_ephemeris_type": 0,
        "meta_classification_type": "U",
        "meta_norad_cat_id": 37836,
        "meta_element_set_no": 999,
        "meta_rev_at_epoch": 559,
        "meta_bstar": 0,
        "meta_mean_motion_dot": 1.26e-06,
        "meta_mean_motion_ddot": 0,
        "tle_line1": "1 37836U 11057A   25360.18949463  .00000126  00000+0  00000+0 0  9998",
        "tle_line2": "2 37836   0.0557 351.9363 0005830 285.1285 262.0750  1.00271589  5597"
      },
      "geometry": {
        "type": "Point",
        "coordinates": [
          -16.161593180292865,
          -0.014955706211932386
        ]
      }
    },
    {
      "type": "Feature",
      "properties": {
        "norad_id": 38992,
        "name": "EUTELSAT 21B",
        "group": "eutelsat",
        "lat": -0.008589651641754938,
        "lon": -10.595241873764007,
        "alt_km": 35781.03526989185,
        "timestamp": "2025-12-26T15:29:39.109538+00:00",
        "meta_object_name": "EUTELSAT 21B",
        "meta_object_id": "2012-062B",
        "meta_epoch": "2025-12-26T02:51:53.978400",
        "meta_mean_motion": 1.00271578,
        "meta_eccentricity": 0.00032369,
        "meta_inclination": 0.0653,
        "meta_ra_of_asc_node": 352.0891,
        "meta_arg_of_pericenter": 288.9417,
        "meta_mean_anomaly": 238.3901,
        "meta_ephemeris_type": 0,
        "meta_classification_type": "U",
        "meta_norad_cat_id": 38992,
        "meta_element_set_no": 999,
        "meta_rev_at_epoch": 4809,
        "meta_bstar": 0,
        "meta_mean_motion_dot": 1.52e-06,
        "meta_mean_motion_ddot": 0,
        "tle_line1": "1 38992U 12062B   25360.11937475  .00000152  00000+0  00000+0 0  9991",
        "tle_line2": "2 38992   0.0653 352.0891 0003236 288.9417 238.3901  1.00271578 48096"
      },
      "geometry": {
        "type": "Point",
        "coordinates": [
          -10.595241873764007,
          -0.008589651641754938
        ]
      }
    },
    {
      "type": "Feature",
      "properties": {
        "norad_id": 39020,
        "name": "EUTELSAT 70B",
        "group": "eutelsat",
        "lat": 0.05569283995645537,
        "lon": 38.31890652017567,
        "alt_km": 35799.90333937199,
        "timestamp": "2025-12-26T15:29:39.109550+00:00",
        "meta_object_name": "EUTELSAT 70B",
        "meta_object_id": "2012-069A",
        "meta_epoch": "2025-12-26T02:10:38.891424",
        "meta_mean_motion": 1.00271991,
        "meta_eccentricity": 0.00041606,
        "meta_inclination": 0.0615,
        "meta_ra_of_asc_node": 349.9122,
        "meta_arg_of_pericenter": 266.0693,
        "meta_mean_anomaly": 302.0171,
        "meta_ephemeris_type": 0,
        "meta_classification_type": "U",
        "meta_norad_cat_id": 39020,
        "meta_element_set_no": 999,
        "meta_rev_at_epoch": 4777,
        "meta_bstar": 0,
        "meta_mean_motion_dot": -2.2e-07,
        "meta_mean_motion_ddot": 0,
        "tle_line1": "1 39020U 12069A   25360.09072791 -.00000022  00000+0  00000+0 0  9996",
        "tle_line2": "2 39020   0.0615 349.9122 0004160 266.0693 302.0171  1.00271991 47770"
      },
      "geometry": {
        "type": "Point",
        "coordinates": [
          38.31890652017567,
          0.05569283995645537
        ]
      }
    },
    {
      "type": "Feature",
      "properties": {
        "norad_id": 39122,
        "name": "EUTELSAT 117 WEST A",
        "group": "eutelsat",
        "lat": -0.022104560416731197,
        "lon": -149.03586827000058,
        "alt_km": 35781.81578569055,
        "timestamp": "2025-12-26T15:29:39.109563+00:00",
        "meta_object_name": "EUTELSAT 117 WEST A",
        "meta_object_id": "2013-012A",
        "meta_epoch": "2025-12-26T05:44:38.581152",
        "meta_mean_motion": 1.00270804,
        "meta_eccentricity": 0.00028138,
        "meta_inclination": 0.0164,
        "meta_ra_of_asc_node": 327.3949,
        "meta_arg_of_pericenter": 311.2435,
        "meta_mean_anomaly": 145.7116,
        "meta_ephemeris_type": 0,
        "meta_classification_type": "U",
        "meta_norad_cat_id": 39122,
        "meta_element_set_no": 999,
        "meta_rev_at_epoch": 4669,
        "meta_bstar": 0,
        "meta_mean_motion_dot": 9e-08,
        "meta_mean_motion_ddot": 0,
        "tle_line1": "1 39122U 13012A   25360.23933543  .00000009  00000+0  00000+0 0  9999",
        "tle_line2": "2 39122   0.0164 327.3949 0002813 311.2435 145.7116  1.00270804 46692"
      },
      "geometry": {
        "type": "Point",
        "coordinates": [
          -149.03586827000058,
          -0.022104560416731197
        ]
      }
    },
    {
      "type": "Feature",
      "properties": {
        "norad_id": 39163,
        "name": "EUTELSAT 7B",
        "group": "eutelsat",
        "lat": -0.050415502953246774,
        "lon": -25.20103906236919,
        "alt_km": 35766.837750860745,
        "timestamp": "2025-12-26T15:29:39.109575+00:00",
        "meta_object_name": "EUTELSAT 7B",
        "meta_object_id": "2013-022A",
        "meta_epoch": "2025-12-25T22:01:38.544672",
        "meta_mean_motion": 1.00271769,
        "meta_eccentricity": 0.00046702,
        "meta_inclination": 0.0662,
        "meta_ra_of_asc_node": 11.1049,
        "meta_arg_of_pericenter": 311.2066,
        "meta_mean_anomaly": 109.7628,
        "meta_ephemeris_type": 0,
        "meta_classification_type": "U",
        "meta_norad_cat_id": 39163,
        "meta_element_set_no": 999,
        "meta_rev_at_epoch": 4621,
        "meta_bstar": 0,
        "meta_mean_motion_dot": 7e-07,
        "meta_mean_motion_ddot": 0,
        "tle_line1": "1 39163U 13022A   25359.91780723  .00000070  00000+0  00000+0 0  9996",
        "tle_line2": "2 39163   0.0662  11.1049 0004670 311.2066 109.7628  1.00271769 46219"
      },
      "geometry": {
        "type": "Point",
        "coordinates": [
          -25.20103906236919,
          -0.050415502953246774
        ]
      }
    },
    {
      "type": "Feature",
      "properties": {
        "norad_id": 39612,
        "name": "EXPRESS-AT1",
        "group": "eutelsat",
        "lat": 0.01329482844871607,
        "lon": 23.794009319010875,
        "alt_km": 35787.663930597424,
        "timestamp": "2025-12-26T15:29:39.109587+00:00",
        "meta_object_name": "EXPRESS-AT1",
        "meta_object_id": "2014-010A",
        "meta_epoch": "2025-12-26T04:01:38.790048",
        "meta_mean_motion": 1.00275867,
        "meta_eccentricity": 0.00013564,
        "meta_inclination": 0.0174,
        "meta_ra_of_asc_node": 279.8877,
        "meta_arg_of_pericenter": 223.1198,
        "meta_mean_anomaly": 68.3278,
        "meta_ephemeris_type": 0,
        "meta_classification_type": "U",
        "meta_norad_cat_id": 39612,
        "meta_element_set_no": 999,
        "meta_rev_at_epoch": 4308,
        "meta_bstar": 0,
        "meta_mean_motion_dot": 1e-06,
        "meta_mean_motion_ddot": 0,
        "tle_line1": "1 39612U 14010A   25360.16781007  .00000100  00000+0  00000+0 0  9992",
        "tle_line2": "2 39612   0.0174 279.8877 0001356 223.1198  68.3278  1.00275867 43089"
      },
      "geometry": {
        "type": "Point",
        "coordinates": [
          23.794009319010875,
          0.01329482844871607
        ]
      }
    },
    {
      "type": "Feature",
      "properties": {
        "norad_id": 39613,
        "name": "EXPRESS-AT2",
        "group": "eutelsat",
        "lat": 0.017074343410268693,
        "lon": 107.6504561584177,
        "alt_km": 35793.00649565012,
        "timestamp": "2025-12-26T15:29:39.109599+00:00",
        "meta_object_name": "EXPRESS-AT2",
        "meta_object_id": "2014-010B",
        "meta_epoch": "2025-12-26T06:50:46.629024",
        "meta_mean_motion": 1.00271364,
        "meta_eccentricity": 0.00016477,
        "meta_inclination": 0.0135,
        "meta_ra_of_asc_node": 309.8988,
        "meta_arg_of_pericenter": 323.7792,
        "meta_mean_anomaly": 63.911,
        "meta_ephemeris_type": 0,
        "meta_classification_type": "U",
        "meta_norad_cat_id": 39613,
        "meta_element_set_no": 999,
        "meta_rev_at_epoch": 4276,
        "meta_bstar": 0,
        "meta_mean_motion_dot": -2.59e-06,
        "meta_mean_motion_ddot": 0,
        "tle_line1": "1 39613U 14010B   25360.28526191 -.00000259  00000+0  00000+0 0  9993",
        "tle_line2": "2 39613   0.0135 309.8988 0001647 323.7792  63.9110  1.00271364 42762"
      },
      "geometry": {
        "type": "Point",
        "coordinates": [
          107.6504561584177,
          0.017074343410268693
        ]
      }
    }
  ]
}